export const MOCK_METAR = {
  raw: 'METAR KJFK 060251Z 10011G21KT 10SM -RA BKN005 15/14 A3012',
  station: {
    icao: 'KJFK',
    name: 'New York John F Kennedy International'
  }
};

export const MOCK_TAF = {
  raw: 'TAF KJFK 0605/0705 10012G22KT 6SM -RA BKN015',
  station: {
    icao: 'KJFK',
    name: 'New York John F Kennedy International'
  }
};
